ONEWEB-0205             
1 48226U 21031S   24281.82253749  .00000345  00000+0  89514-3 0  9997
2 48226  87.8989  52.4595 0001589  91.0387 269.0925 13.14504863167163
ONEWEB-0206             
1 48227U 21031T   24281.87169190  .00000021  00000+0  21218-4 0  9998
2 48227  87.8989  52.4362 0001494  88.6177 271.5124 13.14505438167124
ONEWEB-0182             
1 48228U 21031U   24281.86694044 -.00000018  00000+0 -84070-4 0  9992
2 48228  87.8991  52.4689 0001497  99.9812 260.1486 13.14504932167330
ONEWEB-0186             
1 48229U 21031V   24281.87801983 -.00000712  00000+0 -19536-2 0  9990
2 48229  87.8990  52.4299 0001637  94.6920 265.4396 13.14510217167280
ONEWEB-0181             
1 48230U 21031W   24281.85582233 -.00000133  00000+0 -39190-3 0  9990
2 48230  87.8991  52.5047 0001795  95.6582 264.4753 13.14505483167134
ONEWEB-0188             
1 48231U 21031X   24281.81775692  .00000431  00000+0  11290-2 0  9999
2 48231  87.8989  52.5068 0001582  95.1284 265.0026 13.14506130167032
ONEWEB-0220             
1 48232U 21031Y   24281.85741901 -.00000056  00000+0 -18517-3 0  9995
2 48232  87.8984  52.4567 0001546  86.0873 274.0434 13.14504810167300
ONEWEB-0165             
1 48233U 21031Z   24281.80984636  .00000276  00000+0  71013-3 0  9997
2 48233  87.8992  52.4903 0001673  92.9304 267.2017 13.14505442167257
